DTUSAT-2                
1 40030U 14033W   26187.91838287  .00004903  00000+0  26425-3 0  9995
2 40030  98.0877 186.9019 0008695 156.2531 203.9103 15.15282505655674
QB50P2                  
1 40032U 14033Y   26188.43900351  .00004406  00000+0  23683-3 0  9998
2 40032  98.0762 186.5837 0009353 105.2659 254.9607 15.15438659655735
PERSEUS-M1              
1 40039U 14033AF  26188.30722330  .00001325  00000+0  12443-3 0  9999
2 40039  97.9646 132.7706 0010459 225.6574 134.3790 14.95695464653649
POLYITAN-1              
1 40042U 14033AJ  26188.01799810  .00014746  00000+0  45003-3 0  9997
2 40042  98.0940 216.1644 0008445  87.2204 273.0003 15.34009336656635
TIGRISAT                
1 40043U 14033AK  26187.92329465  .00001560  00000+0  18432-3 0  9998
2 40043  97.7856 337.4856 0049358  11.5693 348.6644 14.85232145648553
CANX-4                  
1 40055U 14034C   26187.60622333  .00000917  00000+0  12484-3 0  9993
2 40055  98.3097  63.6301 0011764 313.3306  46.6924 14.81300885647409
CANX-5                  
1 40056U 14034D   26188.07726639  .00000799  00000+0  10969-3 0  9994
2 40056  98.3099  64.1631 0011730 311.9106  48.1105 14.81318663638286
GONETS-M 10             
1 40063U 14036C   26188.51576229  .00000010  00000+0  23110-5 0  9991
2 40063  82.5123 295.0488 0023004  98.3057 262.0633 12.42946122544775
METEOR-M 2              
1 40069U 14037A   26188.48827928  .00000279  00000+0  14686-3 0  9992
2 40069  98.5130 163.5086 0005655 350.7643   9.3430 14.21468113622207
DX1                     
1 40071U 14037C   26188.50768553  .00001569  00000+0  16898-3 0  9996
2 40071  98.3876 151.4439 0006489 196.0706 164.0305 14.90048013649130
UKUBE-1                 
1 40074U 14037F   26188.46216771  .00004886  00000+0  27440-3 0  9994
2 40074  98.4246 193.8687 0003346 101.4516 258.7088 15.13873030651625
GAOFEN-2                
1 40118U 14049A   26188.51407406  .00000245  00000+0  38530-4 0  9997
2 40118  98.0094 252.7016 0007671 157.1103 203.0452 14.80921519642242
BRITE-PL2 (HEWELIUSZ)   
1 40119U 14049B   26188.25660079  .00001956  00000+0  18560-3 0  9996
2 40119  97.9109 300.4136 0014883  47.9370 312.3113 14.94668605644448
CBERS 4                 
1 40336U 14079A   26188.52954397  .00000340  00000+0  13298-3 0  9998
2 40336  98.3516 244.7223 0001122  49.6423 310.4861 14.35515852606877
SMAP                    
1 40376U 15003A   26188.45592448  .00000364  00000+0  79434-4 0  9998
2 40376  98.1279 195.2635 0001538  97.0614 263.0763 14.63384671610583
GONETS-M 11             
1 40552U 15020A   26188.45474027  .00000071  00000+0  44087-3 0  9995
2 40552  82.4865  18.3597 0015681 321.2381  38.7573 12.42878319511257
GONETS-M 12             
1 40553U 15020B   26188.50850865  .00000130  00000+0  86951-3 0  9992
2 40553  82.4897  19.4554 0014445 305.3579  54.6150 12.42892240511254
GONETS-M 13             
1 40554U 15020C   26188.48232935  .00000130  00000+0  87141-3 0  9994
2 40554  82.4860  18.0808 0012892 289.5822  70.3865 12.42871977511229
DMC3-FM1                
1 40715U 15032A   26188.47697291 -.00000076  00000+0 -27912-5 0  9998
2 40715  97.6436  52.8532 0005667   3.6451 356.4805 14.85761486592920
DMC3-FM2                
1 40716U 15032B   26188.49894455  .00000056  00000+0  12335-4 0  9990
2 40716  97.6488  54.4619 0006290   6.8133 353.3167 14.85766436592924
DMC3-FM3                
1 40717U 15032C   26188.52241676  .00000728  00000+0  89696-4 0  9996
2 40717  97.6539  56.2504 0005471   9.4062 350.7255 14.85757870592937
CARBONITE 1 (CBNT-1)    
1 40718U 15032D   26188.48324847  .00001131  00000+0  14307-3 0  9999
2 40718  97.6523   5.7010 0013269 224.0546 135.9612 14.83652438592356
LILACSAT-2              
1 40908U 15049K   26188.52037897  .00013763  00000+0  22880-3 0  9998
2 40908  97.4628 226.1408 0007752 164.7415 195.4073 15.52159194598903
COSMOS 2507 (RODNIK-S *)
1 40920U 15050A   26188.51681899  .00000084  00000+0  53867-3 0  9991
2 40920  82.4910  67.0116 0009302 311.7154  48.3129 12.42927604489384
COSMOS 2508 (RODNIK-S *)
1 40921U 15050B   26188.47203241  .00000132  00000+0  88296-3 0  9996
2 40921  82.4862  65.5367 0014323 344.0402  16.0224 12.42915379489368
COSMOS 2509 (RODNIK-S *)
1 40922U 15050C   26188.49287009  .00000083  00000+0  53176-3 0  9997
2 40922  82.4870  65.6283 0014986   0.8979 359.2125 12.42884642489402
