OBJECT_NAME,OBJECT_ID,EPOCH,MEAN_MOTION,ECCENTRICITY,INCLINATION,RA_OF_ASC_NODE,ARG_OF_PERICENTER,MEAN_ANOMALY,EPHEMERIS_TYPE,CLASSIFICATION_TYPE,NORAD_CAT_ID,ELEMENT_SET_NO,REV_AT_EPOCH,BSTAR,MEAN_MOTION_DOT,MEAN_MOTION_DDOT
DTUSAT-2,2014-033W,2026-07-06T22:02:28.279968,15.15282505,.0008695,98.0877,186.9019,156.2531,203.9103,0,U,40030,999,65567,.26425E-3,.4903E-4,0
QB50P2,2014-033Y,2026-07-07T10:32:09.903264,15.15438659,.0009353,98.0762,186.5837,105.2659,254.9607,0,U,40032,999,65573,.23683E-3,.4406E-4,0
PERSEUS-M1,2014-033AF,2026-07-07T07:22:24.093120,14.95695464,.0010459,97.9646,132.7706,225.6574,134.3790,0,U,40039,999,65364,.12443E-3,.1325E-4,0
POLYITAN-1,2014-033AJ,2026-07-07T00:25:55.035840,15.34009336,.0008445,98.0940,216.1644,87.2204,273.0003,0,U,40042,999,65663,.45003E-3,.14746E-3,0
TIGRISAT,2014-033AK,2026-07-06T22:09:32.657760,14.85232145,.0049358,97.7856,337.4856,11.5693,348.6644,0,U,40043,999,64855,.18432E-3,.156E-4,0
CANX-4,2014-034C,2026-07-06T14:32:57.695712,14.81300885,.0011764,98.3097,63.6301,313.3306,46.6924,0,U,40055,999,64740,.12484E-3,.917E-5,0
CANX-5,2014-034D,2026-07-07T01:51:15.816096,14.81318663,.001173,98.3099,64.1631,311.9106,48.1105,0,U,40056,999,63828,.10969E-3,.799E-5,0
GONETS-M 10,2014-036C,2026-07-07T12:22:41.861856,12.42946122,.0023004,82.5123,295.0488,98.3057,262.0633,0,U,40063,999,54477,.2311E-5,.1E-6,0
METEOR-M 2,2014-037A,2026-07-07T11:43:07.329792,14.21468113,.0005655,98.5130,163.5086,350.7643,9.3430,0,U,40069,999,62220,.14686E-3,.279E-5,0
DX1,2014-037C,2026-07-07T12:11:04.029792,14.90048013,.0006489,98.3876,151.4439,196.0706,164.0305,0,U,40071,999,64913,.16898E-3,.1569E-4,0
UKUBE-1,2014-037F,2026-07-07T11:05:31.290144,15.13873030,.0003346,98.4246,193.8687,101.4516,258.7088,0,U,40074,999,65162,.2744E-3,.4886E-4,0
GAOFEN-2,2014-049A,2026-07-07T12:20:15.998784,14.80921519,.0007671,98.0094,252.7016,157.1103,203.0452,0,U,40118,999,64224,.3853E-4,.245E-5,0
BRITE-PL2 (HEWELIUSZ),2014-049B,2026-07-07T06:09:30.308256,14.94668605,.0014883,97.9109,300.4136,47.9370,312.3113,0,U,40119,999,64444,.1856E-3,.1956E-4,0
CBERS 4,2014-079A,2026-07-07T12:42:32.599008,14.35515852,.0001122,98.3516,244.7223,49.6423,310.4861,0,U,40336,999,60687,.13298E-3,.34E-5,0
SMAP,2015-003A,2026-07-07T10:56:31.875072,14.63384671,.0001538,98.1279,195.2635,97.0614,263.0763,0,U,40376,999,61058,.79434E-4,.364E-5,0
GONETS-M 11,2015-020A,2026-07-07T10:54:49.559328,12.42878319,.0015681,82.4865,18.3597,321.2381,38.7573,0,U,40552,999,51125,.44087E-3,.71E-6,0
GONETS-M 12,2015-020B,2026-07-07T12:12:15.147360,12.42892240,.0014445,82.4897,19.4554,305.3579,54.6150,0,U,40553,999,51125,.86951E-3,.13E-5,0
GONETS-M 13,2015-020C,2026-07-07T11:34:33.255840,12.42871977,.0012892,82.4860,18.0808,289.5822,70.3865,0,U,40554,999,51122,.87141E-3,.13E-5,0
DMC3-FM1,2015-032A,2026-07-07T11:26:50.459424,14.85761486,.0005667,97.6436,52.8532,3.6451,356.4805,0,U,40715,999,59292,-.27912E-5,-.76E-6,0
DMC3-FM2,2015-032B,2026-07-07T11:58:28.809120,14.85766436,.000629,97.6488,54.4619,6.8133,353.3167,0,U,40716,999,59292,.12335E-4,.56E-6,0
DMC3-FM3,2015-032C,2026-07-07T12:32:16.808064,14.85757870,.0005471,97.6539,56.2504,9.4062,350.7255,0,U,40717,999,59293,.89696E-4,.728E-5,0
CARBONITE 1 (CBNT-1),2015-032D,2026-07-07T11:35:52.667808,14.83652438,.0013269,97.6523,5.7010,224.0546,135.9612,0,U,40718,999,59235,.14307E-3,.1131E-4,0
LILACSAT-2,2015-049K,2026-07-07T12:29:20.743008,15.52159194,.0007752,97.4628,226.1408,164.7415,195.4073,0,U,40908,999,59890,.2288E-3,.13763E-3,0
COSMOS 2507 (RODNIK-S 13),2015-050A,2026-07-07T12:24:13.160736,12.42927604,.0009302,82.4910,67.0116,311.7154,48.3129,0,U,40920,999,48938,.53867E-3,.84E-6,0
COSMOS 2508 (RODNIK-S 14),2015-050B,2026-07-07T11:19:43.600224,12.42915379,.0014323,82.4862,65.5367,344.0402,16.0224,0,U,40921,999,48936,.88296E-3,.132E-5,0
COSMOS 2509 (RODNIK-S 15),2015-050C,2026-07-07T11:49:43.975776,12.42884642,.0014986,82.4870,65.6283,0.8979,359.2125,0,U,40922,999,48940,.53176E-3,.83E-6,0
